{"type": "FeatureCollection", "features": [ {"type": "Feature", "properties": {"norad_id": 35890, "name": "COSMOS 2251 DEB", "group": "cosmos-2251-debris", "lat": 45.47610240169419, "lon": 30.866641491069444, "alt_km": 726.3181127311609, "timestamp": "2025-12-20T11:30:28.772860+00:00", "meta": {"OBJECT_NAME": "COSMOS 2251 DEB", "OBJECT_ID": "1993-036AUD", "EPOCH": "2025-12-16T22:53:46.078656", "MEAN_MOTION": 14.57543512, "ECCENTRICITY": 0.00539437, "INCLINATION": 73.9365, "RA_OF_ASC_NODE": 234.6414, "ARG_OF_PERICENTER": 358.5125, "MEAN_ANOMALY": 1.5869, "EPHEMERIS_TYPE": 0, "CLASSIFICATION_TYPE": "U", "NORAD_CAT_ID": 35890, "ELEMENT_SET_NO": 999, "REV_AT_EPOCH": 65212, "BSTAR": 0.0012168345, "MEAN_MOTION_DOT": 5.621e-05, "MEAN_MOTION_DDOT": 0}, "tle": {"line1": "1 35890U 93036AUD 25350.95400554  .00005621  00000+0  12168-2 0  9996", "line2": "2 35890  73.9365 234.6414 0053943 358.5125   1.5869 14.57543512652129"}}, "geometry": {"type": "Point", "coordinates": [30.866641491069444, 45.47610240169419]}}, {"type": "Feature", "properties": {"norad_id": 35891, "name": "COSMOS 2251 DEB", "group": "cosmos-2251-debris", "lat": -12.844637286359967, "lon": 73.50800708321721, "alt_km": 490.56971255340795, "timestamp": "2025-12-20T11:30:28.772870+00:00", "meta": {"OBJECT_NAME": "COSMOS 2251 DEB", "OBJECT_ID": "1993-036AUE", "EPOCH": "2025-12-19T23:02:38.567040", "MEAN_MOTION": 15.33900235, "ECCENTRICITY": 0.0042412, "INCLINATION": 73.9897, "RA_OF_ASC_NODE": 78.3766, "ARG_OF_PERICENTER": 207.7893, "MEAN_ANOMALY": 152.1046, "EPHEMERIS_TYPE": 0, "CLASSIFICATION_TYPE": "U", "NORAD_CAT_ID": 35891, "ELEMENT_SET_NO": 999, "REV_AT_EPOCH": 67331, "BSTAR": 0.0008769, "MEAN_MOTION_DOT": 0.00029674, "MEAN_MOTION_DDOT": 0}, "tle": {"line1": "1 35891U 93036AUE 25353.96016860  .00029674  00000+0  87690-3 0  9991", "line2": "2 35891  73.9897  78.3766 0042412 207.7893 152.1046 15.33900235673317"}}, "geometry": {"type": "Point", "coordinates": [73.50800708321721, -12.844637286359967]}}, {"type": "Feature", "properties": {"norad_id": 35895, "name": "COSMOS 2251 DEB", "group": "cosmos-2251-debris", "lat": -44.09625261623171, "lon": 170.33225171428305, "alt_km": 1025.581289249918, "timestamp": "2025-12-20T11:30:28.772880+00:00", "meta": {"OBJECT_NAME": "COSMOS 2251 DEB", "OBJECT_ID": "1993-036AUJ", "EPOCH": "2025-12-11T07:10:31.732032", "MEAN_MOTION": 14.01513994, "ECCENTRICITY": 0.01987879, "INCLINATION": 74.0502, "RA_OF_ASC_NODE": 350.1634, "ARG_OF_PERICENTER": 88.7843, "MEAN_ANOMALY": 273.6056, "EPHEMERIS_TYPE": 0, "CLASSIFICATION_TYPE": "U", "NORAD_CAT_ID": 35895, "ELEMENT_SET_NO": 999, "REV_AT_EPOCH": 58992, "BSTAR": 0.0020881347, "MEAN_MOTION_DOT": 3.73e-05, "MEAN_MOTION_DDOT": 0}, "tle": {"line1": "1 35895U 93036AUJ 25345.29897838  .00003730  00000+0  20881-2 0  9997", "line2": "2 35895  74.0502 350.1634 0198787  88.7843 273.6056 14.01513994589929"}}, "geometry": {"type": "Point", "coordinates": [170.33225171428305, -44.09625261623171]}}, {"type": "Feature", "properties": {"norad_id": 35898, "name": "COSMOS 2251 DEB", "group": "cosmos-2251-debris", "lat": 13.395174319046703, "lon": 97.88926325200045, "alt_km": 595.4018051283119, "timestamp": "2025-12-20T11:30:28.772890+00:00", "meta": {"OBJECT_NAME": "COSMOS 2251 DEB", "OBJECT_ID": "1993-036AUM", "EPOCH": "2025-12-17T02:32:30.687072", "MEAN_MOTION": 14.94779467, "ECCENTRICITY": 0.00792454, "INCLINATION": 73.9918, "RA_OF_ASC_NODE": 288.6268, "ARG_OF_PERICENTER": 70.8936, "MEAN_ANOMALY": 307.548, "EPHEMERIS_TYPE": 0, "CLASSIFICATION_TYPE": "U", "NORAD_CAT_ID": 35898, "ELEMENT_SET_NO": 999, "REV_AT_EPOCH": 66875, "BSTAR": 0.00065982938, "MEAN_MOTION_DOT": 7.606e-05, "MEAN_MOTION_DDOT": 0}, "tle": {"line1": "1 35898U 93036AUM 25351.10591073  .00007606  00000+0  65983-3 0  9998", "line2": "2 35898  73.9918 288.6268 0079245  70.8936 307.5480 14.94779467668759"}}, "geometry": {"type": "Point", "coordinates": [97.88926325200045, 13.395174319046703]}}, {"type": "Feature", "properties": {"norad_id": 35901, "name": "COSMOS 2251 DEB", "group": "cosmos-2251-debris", "lat": 18.83435219550658, "lon": -178.67964987185414, "alt_km": 548.3862083013637, "timestamp": "2025-12-20T11:30:28.772900+00:00", "meta": {"OBJECT_NAME": "COSMOS 2251 DEB", "OBJECT_ID": "1993-036AUQ", "EPOCH": "2025-12-19T17:49:19.152192", "MEAN_MOTION": 15.07669326, "ECCENTRICITY": 0.00076003, "INCLINATION": 74.0118, "RA_OF_ASC_NODE": 8.45, "ARG_OF_PERICENTER": 341.4047, "MEAN_ANOMALY": 140.8149, "EPHEMERIS_TYPE": 0, "CLASSIFICATION_TYPE": "U", "NORAD_CAT_ID": 35901, "ELEMENT_SET_NO": 999, "REV_AT_EPOCH": 86232, "BSTAR": 0.0021961299, "MEAN_MOTION_DOT": 0.00033635, "MEAN_MOTION_DDOT": 0}, "tle": {"line1": "1 35901U 93036AUQ 25353.74258278  .00033635  00000+0  21961-2 0  9990", "line2": "2 35901  74.0118   8.4500 0007600 341.4047 140.8149 15.07669326862327"}}, "geometry": {"type": "Point", "coordinates": [-178.67964987185414, 18.83435219550658]}}, {"type": "Feature", "properties": {"norad_id": 35902, "name": "COSMOS 2251 DEB", "group": "cosmos-2251-debris", "lat": 6.486218171568534, "lon": -137.59463949766675, "alt_km": 741.8932285408009, "timestamp": "2025-12-20T11:30:28.772910+00:00", "meta": {"OBJECT_NAME": "COSMOS 2251 DEB", "OBJECT_ID": "1993-036AUR", "EPOCH": "2025-12-19T15:17:09.843072", "MEAN_MOTION": 14.26937143, "ECCENTRICITY": 0.0102282, "INCLINATION": 73.9823, "RA_OF_ASC_NODE": 222.0626, "ARG_OF_PERICENTER": 335.5486, "MEAN_ANOMALY": 24.0827, "EPHEMERIS_TYPE": 0, "CLASSIFICATION_TYPE": "U", "NORAD_CAT_ID": 35902, "ELEMENT_SET_NO": 999, "REV_AT_EPOCH": 61228, "BSTAR": 0.00057286, "MEAN_MOTION_DOT": 1.445e-05, "MEAN_MOTION_DDOT": 0}, "tle": {"line1": "1 35902U 93036AUR 25353.63691948  .00001445  00000+0  57286-3 0  9998", "line2": "2 35902  73.9823 222.0626 0102282 335.5486  24.0827 14.26937143612284"}}, "geometry": {"type": "Point", "coordinates": [-137.59463949766675, 6.486218171568534]}}, {"type": "Feature", "properties": {"norad_id": 35905, "name": "COSMOS 2251 DEB", "group": "cosmos-2251-debris", "lat": 12.98435196036479, "lon": 11.31299206481587, "alt_km": 588.3446379016041, "timestamp": "2025-12-20T11:30:28.772920+00:00", "meta": {"OBJECT_NAME": "COSMOS 2251 DEB", "OBJECT_ID": "1993-036AUU", "EPOCH": "2025-12-19T20:20:40.701984", "MEAN_MOTION": 14.99109626, "ECCENTRICITY": 0.00907234, "INCLINATION": 74.0303, "RA_OF_ASC_NODE": 196.3814, "ARG_OF_PERICENTER": 274.7905, "MEAN_ANOMALY": 84.2926, "EPHEMERIS_TYPE": 0, "CLASSIFICATION_TYPE": "U", "NORAD_CAT_ID": 35905, "ELEMENT_SET_NO": 999, "REV_AT_EPOCH": 88689, "BSTAR": 0.00038534717, "MEAN_MOTION_DOT": 5.062e-05, "MEAN_MOTION_DDOT": 0}, "tle": {"line1": "1 35905U 93036AUU 25353.84769331  .00005062  00000+0  38535-3 0  9991", "line2": "2 35905  74.0303 196.3814 0090723 274.7905  84.2926 14.99109626886895"}}, "geometry": {"type": "Point", "coordinates": [11.31299206481587, 12.98435196036479]}}, {"type": "Feature", "properties": {"norad_id": 35959, "name": "COSMOS 2251 DEB", "group": "cosmos-2251-debris", "lat": -63.5386036639582, "lon": -97.21947115077272, "alt_km": 783.3256502741015, "timestamp": "2025-12-20T11:30:28.772929+00:00", "meta": {"OBJECT_NAME": "COSMOS 2251 DEB", "OBJECT_ID": "1993-036AUZ", "EPOCH": "2025-12-20T03:27:21.166272", "MEAN_MOTION": 14.34140877, "ECCENTRICITY": 0.0021894, "INCLINATION": 74.033, "RA_OF_ASC_NODE": 298.509, "ARG_OF_PERICENTER": 16.9587, "MEAN_ANOMALY": 343.2292, "EPHEMERIS_TYPE": 0, "CLASSIFICATION_TYPE": "U", "NORAD_CAT_ID": 35959, "ELEMENT_SET_NO": 999, "REV_AT_EPOCH": 85034, "BSTAR": 8.8223e-05, "MEAN_MOTION_DOT": 2.22e-06, "MEAN_MOTION_DDOT": 0}, "tle": {"line1": "1 35959U 93036AUZ 25354.14399498  .00000222  00000+0  88223-4 0  9990", "line2": "2 35959  74.0330 298.5090 0021894  16.9587 343.2292 14.34140877850347"}}, "geometry": {"type": "Point", "coordinates": [-97.21947115077272, -63.5386036639582]}}, {"type": "Feature", "properties": {"norad_id": 35961, "name": "COSMOS 2251 DEB", "group": "cosmos-2251-debris", "lat": 34.15261148697536, "lon": -0.7136295501312119, "alt_km": 743.1071287379364, "timestamp": "2025-12-20T11:30:28.772939+00:00", "meta": {"OBJECT_NAME": "COSMOS 2251 DEB", "OBJECT_ID": "1993-036AVB", "EPOCH": "2025-12-18T21:15:12.372768", "MEAN_MOTION": 14.05418101, "ECCENTRICITY": 0.01915239, "INCLINATION": 73.9239, "RA_OF_ASC_NODE": 193.3704, "ARG_OF_PERICENTER": 125.5075, "MEAN_ANOMALY": 236.4097, "EPHEMERIS_TYPE": 0, "CLASSIFICATION_TYPE": "U", "NORAD_CAT_ID": 35961, "ELEMENT_SET_NO": 999, "REV_AT_EPOCH": 62768, "BSTAR": 0.0011788636, "MEAN_MOTION_DOT": 2.232e-05, "MEAN_MOTION_DDOT": 0}, "tle": {"line1": "1 35961U 93036AVB 25352.88555987  .00002232  00000+0  11789-2 0  9993", "line2": "2 35961  73.9239 193.3704 0191523 125.5075 236.4097 14.05418101627687"}}, "geometry": {"type": "Point", "coordinates": [-0.7136295501312119, 34.15261148697536]}}, {"type": "Feature", "properties": {"norad_id": 35979, "name": "COSMOS 2251 DEB", "group": "cosmos-2251-debris", "lat": 18.484348196123147, "lon": 37.74061055456739, "alt_km": 686.5029445632563, "timestamp": "2025-12-20T11:30:28.772949+00:00", "meta": {"OBJECT_NAME": "COSMOS 2251 DEB", "OBJECT_ID": "1993-036AVV", "EPOCH": "2025-12-19T21:49:20.667936", "MEAN_MOTION": 14.74720129, "ECCENTRICITY": 0.0059181, "INCLINATION": 74.0091, "RA_OF_ASC_NODE": 224.3569, "ARG_OF_PERICENTER": 354.8475, "MEAN_ANOMALY": 19.529, "EPHEMERIS_TYPE": 0, "CLASSIFICATION_TYPE": "U", "NORAD_CAT_ID": 35979, "ELEMENT_SET_NO": 999, "REV_AT_EPOCH": 88739, "BSTAR": 0.00048194, "MEAN_MOTION_DOT": 3.28e-05, "MEAN_MOTION_DDOT": 0}, "tle": {"line1": "1 35979U 93036AVV 25353.90926699  .00003280  00000+0  48194-3 0  9993", "line2": "2 35979  74.0091 224.3569 0059181 354.8475  19.5290 14.74720129887395"}}, "geometry": {"type": "Point", "coordinates": [37.74061055456739, 18.484348196123147]}}]}